QIANFAN-25              
1 61558U 24185G   25208.63824642  .00000293  00000+0  17110-3 0  9993
2 61558  88.9793  93.8392 0008746  34.4281 325.7466 14.05749280 50101
QIANFAN-26              
1 61559U 24185H   25208.61395522  .00000242  00000+0  22953-3 0  9997
2 61559  88.9806  94.6757 0007968  72.0243 288.1791 13.77718461 49658
QIANFAN-27              
1 61560U 24185J   25208.62852541  .00000409  00000+0  16188-3 0  9997
2 61560  88.9795  93.1543 0009752  35.3419 324.8420 14.27118646 50467
QIANFAN-28              
1 61561U 24185K   25208.60051486  .00000686  00000+0  27262-3 0  9997
2 61561  88.9813  93.1504 0008814  37.7728 322.4084 14.27674574 50460
QIANFAN-29              
1 61562U 24185L   25208.60881769  .00000176  00000+0  25423-3 0  9994
2 61562  88.9802  95.5970 0012165  88.6102 271.6442 13.50953520 49149
QIANFAN-30              
1 61563U 24185M   25208.62725390  .00000139  00000+0  20032-3 0  9994
2 61563  88.9806  95.0706 0009708  76.2535 283.9696 13.49925554 49431
QIANFAN-31              
1 61564U 24185N   25208.59557302  .00000160  00000+0  20433-3 0  9996
2 61564  88.9788  95.0949 0009379  74.6619 285.5571 13.57903455 49412
QIANFAN-32              
1 61565U 24185P   25208.59834416  .00000169  00000+0  24458-3 0  9991
2 61565  88.9850  95.1659 0011397  97.2103 263.0344 13.50682078 49398
